[{"OBJECT_NAME":"PUNCH-WFI 1 (SMEX 15B)","OBJECT_ID":"2025-047B","EPOCH":"2026-03-09T11:45:25.991424","MEAN_MOTION":14.74225366,"ECCENTRICITY":0.0009999,"INCLINATION":97.9576,"RA_OF_ASC_NODE":255.6057,"ARG_OF_PERICENTER":132.8335,"MEAN_ANOMALY":227.3715,"EPHEMERIS_TYPE":0,"CLASSIFICATION_TYPE":"U","NORAD_CAT_ID":63179,"ELEMENT_SET_NO":999,"REV_AT_EPOCH":5337,"BSTAR":0.00015602986,"MEAN_MOTION_DOT":9.82e-6,"MEAN_MOTION_DDOT":0},{"OBJECT_NAME":"FENGYUN 1C DEB","OBJECT_ID":"1999-025NP","EPOCH":"2026-03-09T22:12:42.736896","MEAN_MOTION":14.3962528,"ECCENTRICITY":0.02553521,"INCLINATION":98.3785,"RA_OF_ASC_NODE":59.6487,"ARG_OF_PERICENTER":200.4769,"MEAN_ANOMALY":227.6456,"EPHEMERIS_TYPE":0,"CLASSIFICATION_TYPE":"U","NORAD_CAT_ID":30038,"ELEMENT_SET_NO":999,"REV_AT_EPOCH":146,"BSTAR":0.00020322234,"MEAN_MOTION_DOT":8.77e-6,"MEAN_MOTION_DDOT":0}]
